start=new Date('2023-03-24T00:00:00.000Z').valueOf();
sats=[{"COUNTRY_CODE":"US","MEAN_ELEMENT_THEORY":"SGP4","MEAN_ANOMALY":"283.5912","REF_FRAME":"TEME","EPOCH":"2023-03-23T22:25:30.106272","ECCENTRICITY":"0.00060460","TLE_LINE2":"2 53655  97.6541 325.2245 0006046  76.5986 283.5912 15.01271257 30934","OBJECT_TYPE":"PAYLOAD","LAUNCH_DATE":"2022-08-31","ARG_OF_PERICENTER":"76.5986","ELEMENT_SET_NO":"999","GP_ID":"228742387","PERIAPSIS":"558.781","APOAPSIS":"567.174","FILE":"3868816","OBJECT_ID":"2022-105H","SITE":"AFWTR","INCLINATION":"97.6541","MEAN_MOTION_DDOT":"0.0000000000000","NORAD_CAT_ID":"53655","RA_OF_ASC_NODE":"325.2245","TLE_LINE1":"1 53655U 22105H   23082.93437623  .00003845  00000-0  30360-3 0  9991","SEMIMAJOR_AXIS":"6941.112","REV_AT_EPOCH":"3093","CENTER_NAME":"EARTH","RCS_SIZE":"MEDIUM","EPHEMERIS_TYPE":"0","MEAN_MOTION_DOT":"0.00003845","PERIOD":"95.919","TIME_SYSTEM":"UTC","DECAY_DATE":null,"OBJECT_NAME":"STARLINK-4470","BSTAR":"0.00030360000000","CLASSIFICATION_TYPE":"U","MEAN_MOTION":"15.01271257"},{"INCLINATION":"97.6547","MEAN_MOTION_DDOT":"0.0000000000000","FILE":"3868816","APOAPSIS":"566.602","OBJECT_ID":"2022-105J","SITE":"AFWTR","NORAD_CAT_ID":"53656","RA_OF_ASC_NODE":"325.2134","LAUNCH_DATE":"2022-08-31","GP_ID":"228741863","PERIAPSIS":"559.338","ARG_OF_PERICENTER":"84.3693","ELEMENT_SET_NO":"999","ECCENTRICITY":"0.00052320","TLE_LINE2":"2 53656  97.6547 325.2134 0005232  84.3693 275.8128 15.01273604 30937","OBJECT_TYPE":"PAYLOAD","MEAN_ANOMALY":"275.8128","MEAN_ELEMENT_THEORY":"SGP4","COUNTRY_CODE":"US","REF_FRAME":"TEME","EPOCH":"2023-03-23T22:15:11.215296","CLASSIFICATION_TYPE":"U","MEAN_MOTION":"15.01273604","TIME_SYSTEM":"UTC","PERIOD":"95.919","DECAY_DATE":null,"BSTAR":"0.00029461000000","OBJECT_NAME":"STARLINK-4466","CENTER_NAME":"EARTH","EPHEMERIS_TYPE":"0","MEAN_MOTION_DOT":"0.00003729","RCS_SIZE":"LARGE","TLE_LINE1":"1 53656U 22105J   23082.92721314  .00003729  00000-0  29461-3 0  9995","SEMIMAJOR_AXIS":"6941.105","REV_AT_EPOCH":"3093"},{"LAUNCH_DATE":"2022-08-31","ELEMENT_SET_NO":"999","ARG_OF_PERICENTER":"75.2384","PERIAPSIS":"558.645","GP_ID":"228741885","SITE":"AFWTR","FILE":"3868816","OBJECT_ID":"2022-105K","APOAPSIS":"567.380","MEAN_MOTION_DDOT":"0.0000000000000","INCLINATION":"97.6525","RA_OF_ASC_NODE":"325.2213","NORAD_CAT_ID":"53657","COUNTRY_CODE":"US","MEAN_ANOMALY":"284.9537","MEAN_ELEMENT_THEORY":"SGP4","EPOCH":"2023-03-23T22:22:51.506976","REF_FRAME":"TEME","ECCENTRICITY":"0.00062920","OBJECT_TYPE":"PAYLOAD","TLE_LINE2":"2 53657  97.6525 325.2213 0006292  75.2384 284.9537 15.01259722 30935","PERIOD":"95.919","TIME_SYSTEM":"UTC","OBJECT_NAME":"STARLINK-4469","BSTAR":"0.00028332000000","DECAY_DATE":null,"CLASSIFICATION_TYPE":"U","MEAN_MOTION":"15.01259722","SEMIMAJOR_AXIS":"6941.148","TLE_LINE1":"1 53657U 22105K   23082.93254059  .00003583  00000-0  28332-3 0  9998","REV_AT_EPOCH":"3093","CENTER_NAME":"EARTH","RCS_SIZE":"LARGE","MEAN_MOTION_DOT":"0.00003583","EPHEMERIS_TYPE":"0"},{"ARG_OF_PERICENTER":"75.3881","ELEMENT_SET_NO":"999","GP_ID":"228742135","PERIAPSIS":"559.280","LAUNCH_DATE":"2022-08-31","NORAD_CAT_ID":"53658","RA_OF_ASC_NODE":"325.2160","FILE":"3868816","OBJECT_ID":"2022-105L","APOAPSIS":"566.750","SITE":"AFWTR","INCLINATION":"97.6527","MEAN_MOTION_DDOT":"0.0000000000000","REF_FRAME":"TEME","EPOCH":"2023-03-23T22:14:50.451648","COUNTRY_CODE":"US","MEAN_ELEMENT_THEORY":"SGP4","MEAN_ANOMALY":"284.7940","TLE_LINE2":"2 53658  97.6527 325.2160 0005381  75.3881 284.7940 15.01259024 30931","OBJECT_TYPE":"PAYLOAD","ECCENTRICITY":"0.00053810","DECAY_DATE":null,"OBJECT_NAME":"STARLINK-4452","BSTAR":"0.00052257000000","PERIOD":"95.919","TIME_SYSTEM":"UTC","MEAN_MOTION":"15.01259024","CLASSIFICATION_TYPE":"U","REV_AT_EPOCH":"3093","SEMIMAJOR_AXIS":"6941.150","TLE_LINE1":"1 53658U 22105L   23082.92697282  .00006661  00000-0  52257-3 0  9990","RCS_SIZE":"LARGE","MEAN_MOTION_DOT":"0.00006661","EPHEMERIS_TYPE":"0","CENTER_NAME":"EARTH"},{"PERIAPSIS":"558.987","GP_ID":"228742887","ELEMENT_SET_NO":"999","ARG_OF_PERICENTER":"78.3803","LAUNCH_DATE":"2022-08-31","RA_OF_ASC_NODE":"325.2167","NORAD_CAT_ID":"53659","MEAN_MOTION_DDOT":"0.0000000000000","INCLINATION":"97.6542","SITE":"AFWTR","OBJECT_ID":"2022-105M","FILE":"3868816","APOAPSIS":"567.020","EPOCH":"2023-03-23T22:17:30.700320","REF_FRAME":"TEME","MEAN_ANOMALY":"281.8070","MEAN_ELEMENT_THEORY":"SGP4","COUNTRY_CODE":"US","OBJECT_TYPE":"PAYLOAD","TLE_LINE2":"2 53659  97.6542 325.2167 0005786  78.3803 281.8070 15.01262669 30933","ECCENTRICITY":"0.00057860","BSTAR":"0.00032724000000","OBJECT_NAME":"STARLINK-4463","DECAY_DATE":null,"TIME_SYSTEM":"UTC","PERIOD":"95.919","MEAN_MOTION":"15.01262669","CLASSIFICATION_TYPE":"U","REV_AT_EPOCH":"3093","SEMIMAJOR_AXIS":"6941.139","TLE_LINE1":"1 53659U 22105M   23082.92882755  .00004148  00000-0  32724-3 0  9997","EPHEMERIS_TYPE":"0","MEAN_MOTION_DOT":"0.00004148","RCS_SIZE":"LARGE","CENTER_NAME":"EARTH"},{"LAUNCH_DATE":"2022-08-31","GP_ID":"228741364","PERIAPSIS":"560.451","ARG_OF_PERICENTER":"91.6583","ELEMENT_SET_NO":"999","INCLINATION":"97.6545","MEAN_MOTION_DDOT":"0.0000000000000","APOAPSIS":"565.507","FILE":"3868816","OBJECT_ID":"2022-105N","SITE":"AFWTR","RA_OF_ASC_NODE":"325.2087","NORAD_CAT_ID":"53660","MEAN_ELEMENT_THEORY":"SGP4","MEAN_ANOMALY":"268.5058","COUNTRY_CODE":"US","REF_FRAME":"TEME","EPOCH":"2023-03-23T22:06:50.509152","ECCENTRICITY":"0.00036420","TLE_LINE2":"2 53660  97.6545 325.2087 0003642  91.6583 268.5058 15.01270551 30938","OBJECT_TYPE":"PAYLOAD","TIME_SYSTEM":"UTC","PERIOD":"95.919","DECAY_DATE":null,"OBJECT_NAME":"STARLINK-4473","BSTAR":"0.00044133000000","CLASSIFICATION_TYPE":"U","MEAN_MOTION":"15.01270551","TLE_LINE1":"1 53660U 22105N   23082.92141793  .00005616  00000-0  44133-3 0  9997","SEMIMAJOR_AXIS":"6941.114","REV_AT_EPOCH":"3093","CENTER_NAME":"EARTH","MEAN_MOTION_DOT":"0.00005616","EPHEMERIS_TYPE":"0","RCS_SIZE":"LARGE"},{"SITE":"AFWTR","APOAPSIS":"566.382","FILE":"3868816","OBJECT_ID":"2022-105P","MEAN_MOTION_DDOT":"0.0000000000000","INCLINATION":"97.6553","NORAD_CAT_ID":"53661","RA_OF_ASC_NODE":"324.9485","LAUNCH_DATE":"2022-08-31","ELEMENT_SET_NO":"999","ARG_OF_PERICENTER":"83.1472","PERIAPSIS":"559.585","GP_ID":"228741386","ECCENTRICITY":"0.00048960","OBJECT_TYPE":"PAYLOAD","TLE_LINE2":"2 53661  97.6553 324.9485 0004896  83.1472 277.0309 15.01269128 30898","COUNTRY_CODE":"US","MEAN_ELEMENT_THEORY":"SGP4","MEAN_ANOMALY":"277.0309","EPOCH":"2023-03-23T15:48:15.872256","REF_FRAME":"TEME","CLASSIFICATION_TYPE":"U","MEAN_MOTION":"15.01269128","PERIOD":"95.919","TIME_SYSTEM":"UTC","OBJECT_NAME":"STARLINK-4472","BSTAR":"0.00036733000000","DECAY_DATE":null,"CENTER_NAME":"EARTH","RCS_SIZE":"LARGE","MEAN_MOTION_DOT":"0.00004664","EPHEMERIS_TYPE":"0","TLE_LINE1":"1 53661U 22105P   23082.65851704  .00004664  00000-0  36733-3 0  9997","SEMIMAJOR_AXIS":"6941.119","REV_AT_EPOCH":"3089"},{"MEAN_ANOMALY":"250.9425","MEAN_ELEMENT_THEORY":"SGP4","COUNTRY_CODE":"US","EPOCH":"2023-03-23T22:01:30.455040","REF_FRAME":"TEME","ECCENTRICITY":"0.00015240","OBJECT_TYPE":"PAYLOAD","TLE_LINE2":"2 53662  97.6549 325.2034 0001524 109.1964 250.9425 15.01270681 30938","LAUNCH_DATE":"2022-08-31","PERIAPSIS":"561.921","GP_ID":"228741636","ELEMENT_SET_NO":"999","ARG_OF_PERICENTER":"109.1964","MEAN_MOTION_DDOT":"0.0000000000000","INCLINATION":"97.6549","SITE":"AFWTR","FILE":"3868816","APOAPSIS":"564.037","OBJECT_ID":"2022-105Q","NORAD_CAT_ID":"53662","RA_OF_ASC_NODE":"325.2034","TLE_LINE1":"1 53662U 22105Q   23082.91771360  .00005135  00000-0  40396-3 0  9990","SEMIMAJOR_AXIS":"6941.114","REV_AT_EPOCH":"3093","CENTER_NAME":"EARTH","MEAN_MOTION_DOT":"0.00005135","EPHEMERIS_TYPE":"0","RCS_SIZE":"LARGE","TIME_SYSTEM":"UTC","PERIOD":"95.919","BSTAR":"0.00040396000000","OBJECT_NAME":"STARLINK-4357","DECAY_DATE":null,"CLASSIFICATION_TYPE":"U","MEAN_MOTION":"15.01270681"},{"LAUNCH_DATE":"2022-08-31","PERIAPSIS":"559.440","GP_ID":"228742388","ELEMENT_SET_NO":"999","ARG_OF_PERICENTER":"89.6607","MEAN_MOTION_DDOT":"0.0000000000000","INCLINATION":"97.6548","SITE":"AFWTR","FILE":"3868816","APOAPSIS":"566.358","OBJECT_ID":"2022-105R","NORAD_CAT_ID":"53663","RA_OF_ASC_NODE":"325.2085","MEAN_ELEMENT_THEORY":"SGP4","MEAN_ANOMALY":"270.5188","COUNTRY_CODE":"US","EPOCH":"2023-03-23T22:09:29.940480","REF_FRAME":"TEME","ECCENTRICITY":"0.00049830","OBJECT_TYPE":"PAYLOAD","TLE_LINE2":"2 53663  97.6548 325.2085 0004983  89.6607 270.5188 15.01296573 30934","TIME_SYSTEM":"UTC","PERIOD":"95.917","BSTAR":"-0.00063446000000","OBJECT_NAME":"STARLINK-4457","DECAY_DATE":null,"CLASSIFICATION_TYPE":"U","MEAN_MOTION":"15.01296573","TLE_LINE1":"1 53663U 22105R   23082.92326320 -.00008209  00000-0 -63446-3 0  9992","SEMIMAJOR_AXIS":"6941.034","REV_AT_EPOCH":"3093","CENTER_NAME":"EARTH","MEAN_MOTION_DOT":"-0.00008209","EPHEMERIS_TYPE":"0","RCS_SIZE":"LARGE"},{"EPHEMERIS_TYPE":"0","MEAN_MOTION_DOT":"0.00014549","RCS_SIZE":"LARGE","CENTER_NAME":"EARTH","REV_AT_EPOCH":"3093","SEMIMAJOR_AXIS":"6941.066","TLE_LINE1":"1 53664U 22105S   23082.91585916  .00014549  00000-0  11342-2 0  9999","MEAN_MOTION":"15.01286079","CLASSIFICATION_TYPE":"U","OBJECT_NAME":"STARLINK-4471","BSTAR":"0.00113420000000","DECAY_DATE":null,"TIME_SYSTEM":"UTC","PERIOD":"95.918","OBJECT_TYPE":"PAYLOAD","TLE_LINE2":"2 53664  97.6544 325.2007 0001421  99.7224 260.4160 15.01286079 30934","ECCENTRICITY":"0.00014210","EPOCH":"2023-03-23T21:58:50.231424","REF_FRAME":"TEME","MEAN_ANOMALY":"260.4160","MEAN_ELEMENT_THEORY":"SGP4","COUNTRY_CODE":"US","NORAD_CAT_ID":"53664","RA_OF_ASC_NODE":"325.2007","MEAN_MOTION_DDOT":"0.0000000000000","INCLINATION":"97.6544","SITE":"AFWTR","FILE":"3868816","APOAPSIS":"563.918","OBJECT_ID":"2022-105S","PERIAPSIS":"561.945","GP_ID":"228741864","ELEMENT_SET_NO":"999","ARG_OF_PERICENTER":"99.7224","LAUNCH_DATE":"2022-08-31"}];
